[{"OBJECT_NAME":"FLYING LAPTOP","OBJECT_ID":"2017-042G","EPOCH":"2026-03-09T23:28:27.762240","MEAN_MOTION":15.00523488,"ECCENTRICITY":0.00192138,"INCLINATION":97.4274,"RA_OF_ASC_NODE":228.6392,"ARG_OF_PERICENTER":94.5564,"MEAN_ANOMALY":265.7856,"EPHEMERIS_TYPE":0,"CLASSIFICATION_TYPE":"U","NORAD_CAT_ID":42831,"ELEMENT_SET_NO":999,"REV_AT_EPOCH":47157,"BSTAR":0.00042943592,"MEAN_MOTION_DOT":5.379e-5,"MEAN_MOTION_DDOT":0},{"OBJECT_NAME":"STARLINK-5745","OBJECT_ID":"2023-020G","EPOCH":"2026-03-09T04:53:25.997568","MEAN_MOTION":15.02575392,"ECCENTRICITY":0.00014116,"INCLINATION":43.0042,"RA_OF_ASC_NODE":7.5,"ARG_OF_PERICENTER":274.2278,"MEAN_ANOMALY":85.8403,"EPHEMERIS_TYPE":0,"CLASSIFICATION_TYPE":"U","NORAD_CAT_ID":55575,"ELEMENT_SET_NO":999,"REV_AT_EPOCH":16884,"BSTAR":-0.00061955432,"MEAN_MOTION_DOT":-8.571e-5,"MEAN_MOTION_DDOT":0}]
